[{"OBJECT_NAME":"SL-8 R/B","OBJECT_ID":"1991-006B","EPOCH":"2026-04-27T06:43:51.399264","MEAN_MOTION":13.77504936,"ECCENTRICITY":0.00209593,"INCLINATION":82.9398,"RA_OF_ASC_NODE":133.9092,"ARG_OF_PERICENTER":258.3018,"MEAN_ANOMALY":111.9875,"EPHEMERIS_TYPE":0,"CLASSIFICATION_TYPE":"U","NORAD_CAT_ID":21088,"ELEMENT_SET_NO":999,"REV_AT_EPOCH":77076,"BSTAR":0.00018747603,"MEAN_MOTION_DOT":2.02e-6,"MEAN_MOTION_DDOT":0},{"OBJECT_NAME":"OKEAN-3","OBJECT_ID":"1991-039A","EPOCH":"2026-04-27T05:11:28.653504","MEAN_MOTION":15.05063791,"ECCENTRICITY":0.00144321,"INCLINATION":82.5132,"RA_OF_ASC_NODE":289.8053,"ARG_OF_PERICENTER":159.5688,"MEAN_ANOMALY":200.6119,"EPHEMERIS_TYPE":0,"CLASSIFICATION_TYPE":"U","NORAD_CAT_ID":21397,"ELEMENT_SET_NO":999,"REV_AT_EPOCH":87233,"BSTAR":0.00028663673,"MEAN_MOTION_DOT":4.109e-5,"MEAN_MOTION_DDOT":0},{"OBJECT_NAME":"COSMOS 2151","OBJECT_ID":"1991-042A","EPOCH":"2026-04-27T05:45:58.095072","MEAN_MOTION":15.00299285,"ECCENTRICITY":0.00106447,"INCLINATION":82.4989,"RA_OF_ASC_NODE":36.8366,"ARG_OF_PERICENTER":254.1231,"MEAN_ANOMALY":105.8821,"EPHEMERIS_TYPE":0,"CLASSIFICATION_TYPE":"U","NORAD_CAT_ID":21422,"ELEMENT_SET_NO":999,"REV_AT_EPOCH":87047,"BSTAR":0.00014758882,"MEAN_MOTION_DOT":1.877e-5,"MEAN_MOTION_DDOT":0},{"OBJECT_NAME":"SL-14 R/B","OBJECT_ID":"1991-042B","EPOCH":"2026-04-27T05:46:20.807904","MEAN_MOTION":14.81871182,"ECCENTRICITY":0.00185815,"INCLINATION":82.4943,"RA_OF_ASC_NODE":174.6704,"ARG_OF_PERICENTER":82.6608,"MEAN_ANOMALY":277.6717,"EPHEMERIS_TYPE":0,"CLASSIFICATION_TYPE":"U","NORAD_CAT_ID":21423,"ELEMENT_SET_NO":999,"REV_AT_EPOCH":86026,"BSTAR":4.123051e-5,"MEAN_MOTION_DOT":3.51e-6,"MEAN_MOTION_DDOT":0},{"OBJECT_NAME":"ERS-1","OBJECT_ID":"1991-050A","EPOCH":"2026-04-27T06:50:10.657248","MEAN_MOTION":14.39484361,"ECCENTRICITY":0.00329432,"INCLINATION":98.7834,"RA_OF_ASC_NODE":136.7329,"ARG_OF_PERICENTER":59.4154,"MEAN_ANOMALY":301.0276,"EPHEMERIS_TYPE":0,"CLASSIFICATION_TYPE":"U","NORAD_CAT_ID":21574,"ELEMENT_SET_NO":999,"REV_AT_EPOCH":82272,"BSTAR":0.00012192663,"MEAN_MOTION_DOT":3.36e-6,"MEAN_MOTION_DDOT":0},{"OBJECT_NAME":"ARIANE 40 R/B","OBJECT_ID":"1991-050F","EPOCH":"2026-04-27T03:37:22.176768","MEAN_MOTION":14.42926035,"ECCENTRICITY":0.00018035,"INCLINATION":98.1919,"RA_OF_ASC_NODE":167.5452,"ARG_OF_PERICENTER":295.5916,"MEAN_ANOMALY":64.5088,"EPHEMERIS_TYPE":0,"CLASSIFICATION_TYPE":"U","NORAD_CAT_ID":21610,"ELEMENT_SET_NO":999,"REV_AT_EPOCH":82598,"BSTAR":9.8778579e-5,"MEAN_MOTION_DOT":2.89e-6,"MEAN_MOTION_DDOT":0},{"OBJECT_NAME":"INTERCOSMOS 25","OBJECT_ID":"1991-086A","EPOCH":"2026-04-27T04:34:25.412160","MEAN_MOTION":12.12131738,"ECCENTRICITY":0.14856884,"INCLINATION":82.5993,"RA_OF_ASC_NODE":280.6722,"ARG_OF_PERICENTER":12.4014,"MEAN_ANOMALY":350.9755,"EPHEMERIS_TYPE":0,"CLASSIFICATION_TYPE":"U","NORAD_CAT_ID":21819,"ELEMENT_SET_NO":999,"REV_AT_EPOCH":50256,"BSTAR":0.00014287519,"MEAN_MOTION_DOT":7.46e-6,"MEAN_MOTION_DDOT":0},{"OBJECT_NAME":"SL-8 R/B","OBJECT_ID":"1992-008B","EPOCH":"2026-04-27T06:57:56.560608","MEAN_MOTION":13.75970895,"ECCENTRICITY":0.00344852,"INCLINATION":82.9279,"RA_OF_ASC_NODE":231.6248,"ARG_OF_PERICENTER":1.2455,"MEAN_ANOMALY":27.5352,"EPHEMERIS_TYPE":0,"CLASSIFICATION_TYPE":"U","NORAD_CAT_ID":21876,"ELEMENT_SET_NO":999,"REV_AT_EPOCH":71610,"BSTAR":4.4089912e-5,"MEAN_MOTION_DOT":5.8e-7,"MEAN_MOTION_DDOT":0},{"OBJECT_NAME":"SL-8 R/B","OBJECT_ID":"1992-020B","EPOCH":"2026-04-27T03:20:09.773664","MEAN_MOTION":13.7554825,"ECCENTRICITY":0.00294912,"INCLINATION":82.9269,"RA_OF_ASC_NODE":117.777,"ARG_OF_PERICENTER":159.8654,"MEAN_ANOMALY":273.4828,"EPHEMERIS_TYPE":0,"CLASSIFICATION_TYPE":"U","NORAD_CAT_ID":21938,"ELEMENT_SET_NO":999,"REV_AT_EPOCH":70779,"BSTAR":-6.6482362e-5,"MEAN_MOTION_DOT":-4.9e-7,"MEAN_MOTION_DDOT":0},{"OBJECT_NAME":"USA 81","OBJECT_ID":"1992-023A","EPOCH":"2026-04-27T01:40:42.941280","MEAN_MOTION":14.32382823,"ECCENTRICITY":0.0001364,"INCLINATION":85.0037,"RA_OF_ASC_NODE":103.5114,"ARG_OF_PERICENTER":104.9278,"MEAN_ANOMALY":255.2066,"EPHEMERIS_TYPE":0,"CLASSIFICATION_TYPE":"U","NORAD_CAT_ID":21949,"ELEMENT_SET_NO":999,"REV_AT_EPOCH":10171,"BSTAR":6.0105672e-5,"MEAN_MOTION_DOT":1.82e-6,"MEAN_MOTION_DDOT":0},{"OBJECT_NAME":"COSMOS 2219","OBJECT_ID":"1992-076A","EPOCH":"2026-04-27T04:31:53.244480","MEAN_MOTION":14.1409707,"ECCENTRICITY":0.00167363,"INCLINATION":71.0597,"RA_OF_ASC_NODE":276.6811,"ARG_OF_PERICENTER":130.123,"MEAN_ANOMALY":230.1362,"EPHEMERIS_TYPE":0,"CLASSIFICATION_TYPE":"U","NORAD_CAT_ID":22219,"ELEMENT_SET_NO":999,"REV_AT_EPOCH":72523,"BSTAR":0.00022413871,"MEAN_MOTION_DOT":3.8e-6,"MEAN_MOTION_DDOT":0},{"OBJECT_NAME":"SL-16 R/B","OBJECT_ID":"1992-076B","EPOCH":"2026-04-27T06:38:25.534752","MEAN_MOTION":14.16865175,"ECCENTRICITY":0.0012151,"INCLINATION":70.9984,"RA_OF_ASC_NODE":86.0247,"ARG_OF_PERICENTER":10.6618,"MEAN_ANOMALY":89.3822,"EPHEMERIS_TYPE":0,"CLASSIFICATION_TYPE":"U","NORAD_CAT_ID":22220,"ELEMENT_SET_NO":999,"REV_AT_EPOCH":72871,"BSTAR":-3.8820707e-5,"MEAN_MOTION_DOT":-1.26e-6,"MEAN_MOTION_DDOT":0},{"OBJECT_NAME":"COSMOS 2221","OBJECT_ID":"1992-080A","EPOCH":"2026-04-27T07:42:13.718304","MEAN_MOTION":14.96395888,"ECCENTRICITY":0.00148808,"INCLINATION":82.5047,"RA_OF_ASC_NODE":232.487,"ARG_OF_PERICENTER":34.6954,"MEAN_ANOMALY":325.5235,"EPHEMERIS_TYPE":0,"CLASSIFICATION_TYPE":"U","NORAD_CAT_ID":22236,"ELEMENT_SET_NO":999,"REV_AT_EPOCH":78806,"BSTAR":0.00017318818,"MEAN_MOTION_DOT":1.991e-5,"MEAN_MOTION_DDOT":0},{"OBJECT_NAME":"SL-16 R/B","OBJECT_ID":"1992-093B","EPOCH":"2026-04-27T03:33:41.084352","MEAN_MOTION":14.1545861,"ECCENTRICITY":0.00061209,"INCLINATION":71.0213,"RA_OF_ASC_NODE":262.5346,"ARG_OF_PERICENTER":244.7858,"MEAN_ANOMALY":115.2631,"EPHEMERIS_TYPE":0,"CLASSIFICATION_TYPE":"U","NORAD_CAT_ID":22285,"ELEMENT_SET_NO":999,"REV_AT_EPOCH":72001,"BSTAR":0.00019342897,"MEAN_MOTION_DOT":3.3e-6,"MEAN_MOTION_DDOT":0},{"OBJECT_NAME":"COSMOS 2228","OBJECT_ID":"1992-094A","EPOCH":"2026-04-27T07:18:36.827424","MEAN_MOTION":14.97417289,"ECCENTRICITY":0.00191569,"INCLINATION":82.5202,"RA_OF_ASC_NODE":190.7701,"ARG_OF_PERICENTER":135.4469,"MEAN_ANOMALY":224.8298,"EPHEMERIS_TYPE":0,"CLASSIFICATION_TYPE":"U","NORAD_CAT_ID":22286,"ELEMENT_SET_NO":999,"REV_AT_EPOCH":78333,"BSTAR":0.0001636476,"MEAN_MOTION_DOT":1.936e-5,"MEAN_MOTION_DDOT":0},{"OBJECT_NAME":"SL-16 R/B","OBJECT_ID":"1993-016B","EPOCH":"2026-04-27T06:20:41.420256","MEAN_MOTION":14.15308993,"ECCENTRICITY":0.00124982,"INCLINATION":71.0037,"RA_OF_ASC_NODE":113.162,"ARG_OF_PERICENTER":252.7715,"MEAN_ANOMALY":107.204,"EPHEMERIS_TYPE":0,"CLASSIFICATION_TYPE":"U","NORAD_CAT_ID":22566,"ELEMENT_SET_NO":999,"REV_AT_EPOCH":70904,"BSTAR":-0.00010976687,"MEAN_MOTION_DOT":-2.62e-6,"MEAN_MOTION_DDOT":0},{"OBJECT_NAME":"COSMOS 2242","OBJECT_ID":"1993-024A","EPOCH":"2026-04-27T07:23:44.270592","MEAN_MOTION":14.96751126,"ECCENTRICITY":0.00173678,"INCLINATION":82.5205,"RA_OF_ASC_NODE":220.2072,"ARG_OF_PERICENTER":138.4738,"MEAN_ANOMALY":221.7808,"EPHEMERIS_TYPE":0,"CLASSIFICATION_TYPE":"U","NORAD_CAT_ID":22626,"ELEMENT_SET_NO":999,"REV_AT_EPOCH":78766,"BSTAR":0.00017976904,"MEAN_MOTION_DOT":2.087e-5,"MEAN_MOTION_DDOT":0}]
