SL-8 R/B                
1 21088U 91006B   26117.28045601  .00000202  00000+0  18748-3 0  9992
2 21088  82.9398 133.9092 0020959 258.3018 111.9875 13.77504936770763
OKEAN-3                 
1 21397U 91039A   26117.21630386  .00004109  00000+0  28664-3 0  9992
2 21397  82.5132 289.8053 0014432 159.5688 200.6119 15.05063791872335
COSMOS 2151             
1 21422U 91042A   26117.24025573  .00001877  00000+0  14759-3 0  9993
2 21422  82.4989  36.8366 0010644 254.1231 105.8821 15.00299285870470
SL-14 R/B               
1 21423U 91042B   26117.24051861  .00000351  00000+0  41231-4 0  9995
2 21423  82.4943 174.6704 0018581  82.6608 277.6717 14.81871182860266
ERS-1                   
1 21574U 91050A   26117.28484557  .00000336  00000+0  12193-3 0  9994
2 21574  98.7834 136.7329 0032943  59.4154 301.0276 14.39484361822723
ARIANE 40 R/B           
1 21610U 91050F   26117.15095112  .00000289  00000+0  98779-4 0  9998
2 21610  98.1919 167.5452 0001803 295.5916  64.5088 14.42926035825987
INTERCOSMOS 25          
1 21819U 91086A   26117.19057190  .00000746  00000+0  14288-3 0  9996
2 21819  82.5993 280.6722 1485688  12.4014 350.9755 12.12131738502569
SL-8 R/B                
1 21876U 92008B   26117.29023797  .00000058  00000+0  44090-4 0  9992
2 21876  82.9279 231.6248 0034485   1.2455  27.5352 13.75970895716103
SL-8 R/B                
1 21938U 92020B   26117.13900201 -.00000049  00000+0 -66482-4 0  9993
2 21938  82.9269 117.7770 0029491 159.8654 273.4828 13.75548250707798
USA 81                  
1 21949U 92023A   26117.06994145  .00000182  00000+0  60106-4 0  9993
2 21949  85.0037 103.5114 0001364 104.9278 255.2066 14.32382823101712
COSMOS 2219             
1 22219U 92076A   26117.18881070  .00000380  00000+0  22414-3 0  9996
2 22219  71.0597 276.6811 0016736 130.1230 230.1362 14.14097070725230
SL-16 R/B               
1 22220U 92076B   26117.27668443 -.00000126  00000+0 -38821-4 0  9995
2 22220  70.9984  86.0247 0012151  10.6618  89.3822 14.16865175728717
COSMOS 2221             
1 22236U 92080A   26117.32099211  .00001991  00000+0  17319-3 0  9991
2 22236  82.5047 232.4870 0014880  34.6954 325.5235 14.96395888788066
SL-16 R/B               
1 22285U 92093B   26117.14839218  .00000330  00000+0  19343-3 0  9993
2 22285  71.0213 262.5346 0006120 244.7858 115.2631 14.15458610720014
COSMOS 2228             
1 22286U 92094A   26117.30459291  .00001936  00000+0  16365-3 0  9996
2 22286  82.5202 190.7701 0019156 135.4469 224.8298 14.97417289783331
SL-16 R/B               
1 22566U 93016B   26117.26436829 -.00000262  00000+0 -10977-3 0  9995
2 22566  71.0037 113.1620 0012498 252.7715 107.2040 14.15308993709045
COSMOS 2242             
1 22626U 93024A   26117.30815128  .00002087  00000+0  17977-3 0  9991
2 22626  82.5205 220.2072 0017367 138.4738 221.7808 14.96751126787669
